NORAD_CAT_ID,OBJECT_NAME,OBJECT_TYPE,EPOCH,MEAN_MOTION,ECCENTRICITY,INCLINATION,RA_OF_ASC_NODE,ARG_OF_PERICENTER,MEAN_ANOMALY,BSTAR,MEAN_MOTION_DOT,MEAN_MOTION_DDOT,TLE_LINE0,TLE_LINE1,TLE_LINE2,SEMIMAJOR_AXIS,PERIOD,APOGEE,PERIGEE,DECAYED
53557.0,STARLINK-4502,PAYLOAD,2023-08-10 17:29:35,15.08859452,0.0001064,53.2184,332.7466,86.3104,273.8009,0.00033167,4.997e-05,0.0,0 STARLINK-4502,1 53557U 22101AG  23222.72888005  .00004997  00000-0  33167-3 0  9992,2 53557  53.2184 332.7466 0001064  86.3104 273.8009 15.08859452 54100,6917.821,95.436,540.422,538.95,0.0
53557.0,STARLINK-4502,PAYLOAD,2023-08-10 23:51:08,15.08842482,0.0001445,53.2185,331.5542,79.8571,280.2584,6.7396e-05,7.85e-06,0.0,0 STARLINK-4502,1 53557U 22101AG  23222.99384712  .00000785  00000-0  67396-4 0  9990,2 53557  53.2185 331.5542 0001445  79.8571 280.2584 15.08842482 54140,6917.873,95.437,540.737,538.738,0.0
53557.0,STARLINK-4502,PAYLOAD,2023-08-12 10:49:37,15.08835777,9.47e-05,53.2181,325.0177,80.1442,279.9657,-1.9194e-05,-5.93e-06,0.0,0 STARLINK-4502,1 53557U 22101AG  23224.45113023 -.00000593  00000-0 -19194-4 0  9990,2 53557  53.2181 325.0177 0000947  80.1442 279.9657 15.08835777 54365,6917.893,95.438,540.413,539.103,0.0
53557.0,STARLINK-4502,PAYLOAD,2023-08-13 13:51:10,15.0884325,0.0001159,53.2181,319.9603,96.2656,263.8468,0.00021359,3.113e-05,0.0,0 STARLINK-4502,1 53557U 22101AG  23225.57721045  .00003113  00000-0  21359-3 0  9997,2 53557  53.2181 319.9603 0001159  96.2656 263.8468 15.08843250 54538,6917.87,95.437,540.537,538.934,0.0
53557.0,STARLINK-4502,PAYLOAD,2023-08-14 10:31:12,15.08841027,0.0001147,53.2192,316.0963,85.864,274.2483,0.00014491,2.019e-05,0.0,0 STARLINK-4502,1 53557U 22101AG  23226.43833349  .00002019  00000-0  14491-3 0  9997,2 53557  53.2192 316.0963 0001147  85.8640 274.2483 15.08841027 54668,6917.877,95.437,540.536,538.949,0.0
53557.0,STARLINK-4502,PAYLOAD,2023-08-15 23:05:04,15.08845669,0.0001125,53.218,309.2569,72.7729,287.3387,0.00010607,1.401e-05,0.0,0 STARLINK-4502,1 53557U 22101AG  23227.96185240  .00001401  00000-0  10607-3 0  9995,2 53557  53.2180 309.2569 0001125  72.7729 287.3387 15.08845669 54899,6917.863,95.437,540.506,538.95,0.0
53557.0,STARLINK-4502,PAYLOAD,2023-08-16 10:12:46,15.0884026,0.0001285,53.218,307.1765,72.3517,287.7615,7.7167e-05,9.4e-06,0.0,0 STARLINK-4502,1 53557U 22101AG  23228.42553607  .00000940  00000-0  77167-4 0  9995,2 53557  53.2180 307.1765 0001285  72.3517 287.7615 15.08840260 54960,6917.88,95.438,540.634,538.856,0.0
53557.0,STARLINK-4502,PAYLOAD,2023-08-17 10:03:31,15.08876745,0.0001153,53.2175,302.7159,72.9472,287.1646,0.00059398,9.187e-05,0.0,0 STARLINK-4502,1 53557U 22101AG  23229.41911676  .00009187  00000-0  59398-3 0  9996,2 53557  53.2175 302.7159 0001153  72.9472 287.1646 15.08876745 55115,6917.768,95.435,540.431,538.835,0.0
53557.0,STARLINK-4502,PAYLOAD,2023-08-17 14:49:38,15.08886065,9.98e-05,53.2179,301.8227,88.2677,271.843,0.00043382,6.632e-05,0.0,0 STARLINK-4502,1 53557U 22101AG  23229.61781209  .00006632  00000-0  43382-3 0  9993,2 53557  53.2179 301.8227 0000998  88.2677 271.8430 15.08886065 55148,6917.74,95.435,540.295,538.914,0.0
53557.0,STARLINK-4502,PAYLOAD,2023-08-18 09:54:20,15.08828571,8.74e-05,53.2178,298.2537,102.975,257.134,-4.0119e-05,-9.26e-06,0.0,0 STARLINK-4502,1 53557U 22101AG  23230.41274012 -.00000926  00000-0 -40119-4 0  9990,2 53557  53.2178 298.2537 0000874 102.9750 257.1340 15.08828571 55267,6917.915,95.438,540.385,539.176,0.0
53557.0,STARLINK-4502,PAYLOAD,2023-08-19 09:45:07,15.0884137,8.7e-05,53.2173,293.7934,107.0896,253.0191,6.3864e-05,7.29e-06,0.0,0 STARLINK-4502,1 53557U 22101AG  23231.40633474  .00000729  00000-0  63864-4 0  9992,2 53557  53.2173 293.7934 0000870 107.0896 253.0191 15.08841370 55414,6917.876,95.437,540.343,539.139,0.0
53557.0,STARLINK-4502,PAYLOAD,2023-08-20 03:14:22,15.08831844,9.83e-05,53.2173,290.5234,129.1727,230.9353,0.00016983,2.416e-05,0.0,0 STARLINK-4502,1 53557U 22101AG  23232.13497952  .00002416  00000-0  16983-3 0  9996,2 53557  53.2173 290.5234 0000983 129.1727 230.9353 15.08831844 55526,6917.905,95.438,540.45,539.09,0.0
53557.0,STARLINK-4502,PAYLOAD,2023-08-21 11:02:04,15.08845647,8.34e-05,53.217,284.576,104.3431,255.7654,0.00015736,2.218e-05,0.0,0 STARLINK-4502,1 53557U 22101AG  23233.45977813  .00002218  00000-0  15736-3 0  9996,2 53557  53.2170 284.5760 0000834 104.3431 255.7654 15.08845647 55729,6917.863,95.437,540.305,539.151,0.0
53557.0,STARLINK-4502,PAYLOAD,2023-08-22 04:31:19,15.08840409,7.8e-05,53.2166,281.3045,98.5779,261.5302,9.8931e-05,1.287e-05,0.0,0 STARLINK-4502,1 53557U 22101AG  23234.18842124  .00001287  00000-0  98931-4 0  9997,2 53557  53.2166 281.3045 0000780  98.5779 261.5302 15.08840409 55832,6917.879,95.438,540.284,539.205,0.0
53557.0,STARLINK-4502,PAYLOAD,2023-08-24 08:59:02,15.0884464,8.83e-05,53.217,271.4913,90.531,269.5784,0.00010201,1.336e-05,0.0,0 STARLINK-4502,1 53557U 22101AG  23236.37433894  .00001336  00000-0  10201-3 0  9998,2 53557  53.2170 271.4913 0000883  90.5310 269.5784 15.08844640 56810,6917.866,95.437,540.342,539.12,0.0
53557.0,STARLINK-4502,PAYLOAD,2023-08-25 08:49:49,15.08843245,0.0001,53.2172,267.0304,98.2222,261.8884,8.558e-05,1.075e-05,0.0,0 STARLINK-4502,1 53557U 22101AG  23237.36793898  .00001075  00000-0  85580-4 0  9994,2 53557  53.2172 267.0304 0001000  98.2222 261.8884 15.08843245 56317,6917.87,95.437,540.427,539.044,0.0
53557.0,STARLINK-4502,PAYLOAD,2023-08-26 02:19:04,15.08838775,0.0001044,53.2172,263.7592,100.6762,259.4347,5.0612e-05,5.18e-06,0.0,0 STARLINK-4502,1 53557U 22101AG  23238.09658247  .00000518  00000-0  50612-4 0  9992,2 53557  53.2172 263.7592 0001044 100.6762 259.4347 15.08838775 56425,6917.884,95.438,540.471,539.027,0.0
53557.0,STARLINK-4502,PAYLOAD,2023-08-26 11:51:23,15.08841171,0.0001041,53.217,261.9747,100.2113,259.8996,6.0199e-05,6.7e-06,0.0,0 STARLINK-4502,1 53557U 22101AG  23238.49402060  .00000670  00000-0  60199-4 0  9996,2 53557  53.2170 261.9747 0001041 100.2113 259.8996 15.08841171 57135,6917.877,95.437,540.462,539.022,0.0
53557.0,STARLINK-4502,PAYLOAD,2023-08-27 08:31:24,15.08839643,0.0001088,53.217,258.1087,101.6945,258.4169,5.3635e-05,5.66e-06,0.0,0 STARLINK-4502,1 53557U 22101AG  23239.35514241  .00000566  00000-0  53635-4 0  9998,2 53557  53.2170 258.1087 0001088 101.6945 258.4169 15.08839643 56619,6917.881,95.438,540.499,538.994,0.0
53557.0,STARLINK-4502,PAYLOAD,2023-08-28 08:22:11,15.08838009,0.0001057,53.2167,253.648,96.6514,263.4599,5.2213e-05,5.43e-06,0.0,0 STARLINK-4502,1 53557U 22101AG  23240.34874530  .00000543  00000-0  52213-4 0  9995,2 53557  53.2167 253.6480 0001057  96.6514 263.4599 15.08838009 57410,6917.886,95.438,540.483,539.02,0.0
53557.0,STARLINK-4502,PAYLOAD,2023-08-29 01:51:26,15.08838362,0.000104,53.2166,250.3769,93.4536,266.6575,4.8254e-05,4.8e-06,0.0,0 STARLINK-4502,1 53557U 22101AG  23241.07738642  .00000480  00000-0  48254-4 0  9999,2 53557  53.2166 250.3769 0001040  93.4536 266.6575 15.08838362 56874,6917.885,95.438,540.47,539.031,0.0
53557.0,STARLINK-4502,PAYLOAD,2023-08-29 08:12:58,15.0884143,0.0001037,53.2165,249.1873,92.1726,267.9385,6.966e-05,8.21e-06,0.0,0 STARLINK-4502,1 53557U 22101AG  23241.34234412  .00000821  00000-0  69660-4 0  9998,2 53557  53.2165 249.1873 0001037  92.1726 267.9385 15.08841430 57568,6917.876,95.437,540.458,539.024,0.0
53557.0,STARLINK-4502,PAYLOAD,2023-08-30 00:06:50,15.08835,0.0001117,53.2166,246.214,84.0862,276.0257,2.8257e-05,1.62e-06,0.0,0 STARLINK-4502,1 53557U 22101AG  23242.00475155  .00000162  00000-0  28257-4 0  9998,2 53557  53.2166 246.2140 0001117  84.0862 276.0257 15.08835000 57019,6917.896,95.438,540.533,538.988,0.0
53557.0,STARLINK-4502,PAYLOAD,2023-08-30 17:36:04,15.08838319,0.000114,53.2168,242.9434,83.8716,276.2406,4.9122e-05,4.94e-06,0.0,0 STARLINK-4502,1 53557U 22101AG  23242.73339043  .00000494  00000-0  49122-4 0  9995,2 53557  53.2168 242.9434 0001140  83.8716 276.2406 15.08838319 57778,6917.886,95.438,540.539,538.962,0.0
53557.0,STARLINK-4502,PAYLOAD,2023-08-31 09:29:56,15.08842383,0.0001163,53.2167,239.9697,83.5469,276.5655,6.2057e-05,7e-06,0.0,0 STARLINK-4502,1 53557U 22101AG  23243.39578788  .00000700  00000-0  62057-4 0  9991,2 53557  53.2167 239.9697 0001163  83.5469 276.5655 15.08842383 57226,6917.873,95.437,540.543,538.934,0.0
53557.0,STARLINK-4502,PAYLOAD,2023-09-01 09:20:42,15.0884353,0.0001109,53.2163,235.5089,86.3107,273.8012,9.9527e-05,1.297e-05,0.0,0 STARLINK-4502,1 53557U 22101AG  23244.38938621  .00001297  00000-0  99527-4 0  9991,2 53557  53.2163 235.5089 0001109  86.3107 273.8012 15.08843530 58020,6917.87,95.437,540.502,538.967,0.0
53557.0,STARLINK-4502,PAYLOAD,2023-09-01 23:39:11,15.08844296,0.0001218,53.2147,232.8317,90.0071,270.1061,1.7547e-05,-9e-08,0.0,0 STARLINK-4502,1 53557U 22101AG  23244.98554769 -.00000009  00000-0  17547-4 0  9997,2 53557  53.2147 232.8317 0001218  90.0071 270.1061 15.08844296 57460,6917.867,95.437,540.575,538.89,0.0
53557.0,STARLINK-4502,PAYLOAD,2023-09-02 09:11:30,15.08843007,0.0001332,53.2155,231.049,89.8876,270.2269,5.5974e-05,6.03e-06,0.0,0 STARLINK-4502,1 53557U 22101AG  23245.38298713  .00000603  00000-0  55974-4 0  9991,2 53557  53.2155 231.0490 0001332  89.8876 270.2269 15.08843007 58177,6917.871,95.437,540.658,538.815,0.0
53557.0,STARLINK-4502,PAYLOAD,2023-09-02 23:29:58,15.08837919,0.0001434,53.2147,228.3731,90.5556,269.5601,1.3343e-05,-7.6e-07,0.0,0 STARLINK-4502,1 53557U 22101AG  23245.97915176 -.00000076  00000-0  13343-4 0  9994,2 53557  53.2147 228.3731 0001434  90.5556 269.5601 15.08837919 57616,6917.887,95.438,540.744,538.76,0.0
53557.0,STARLINK-4502,PAYLOAD,2023-09-03 09:02:17,15.08840828,0.0001341,53.2165,226.5884,91.4748,268.6397,2.3179e-05,8.1e-07,0.0,0 STARLINK-4502,1 53557U 22101AG  23246.37659003  .00000081  00000-0  23179-4 0  9996,2 53557  53.2165 226.5884 0001341  91.4748 268.6397 15.08840828 58329,6917.878,95.438,540.671,538.815,0.0
